SatCatId,ObjectName,LaunchYear,OrbitalPeriod,LaunchMass,StatusCode,Inclination,Status,UcsData,OrbitClassEstimated,LaunchSiteCountry,Owner,UseType,Purpose,LaunchVehicleClass,TLE1,TLE2,MeanMotion,Eccentricity,OrbitClass
4247,OPS 7613 (P/L 5),1969,103.17,-1.0,UNK,70.01,Inactive,0,LEO,USA,USA,Unknown,Unknown,Unknown,1 04247U 69082F   24171.53727308  .00000055  00000+0  79186-4 0  9996,2 04247  70.0135 216.6733 0020772 350.3157   9.7545 13.95758196785302,13.95758196,0.0020772,LEO
4250,SKYNET 1A,1969,1436.15,-1.0,-,1.44,Inactive,0,GSO,USA,UK,Unknown,Unknown,Unknown,1 04250U 69101A   24171.58820174 -.00000058  00000+0  00000+0 0  9990,2 04250   1.4470 276.4044 0022271 307.5712 150.2434  1.00267839127224,1.00267839,0.0022271,GSO
12442,COSMOS 1269,1981,100.51,-1.0,UNK,74.05,Inactive,0,LEO,Russia,Russia/USSR,Unknown,Unknown,Unknown,1 12442U 81041A   24171.59665524  .00000154  00000+0  66228-4 0  9991,2 12442  74.0539 253.2617 0010852 299.2034  60.8031 14.32671751251760,14.32671751,0.0010852,LEO
4254,COSMOS 312,1969,108.5,-1.0,UNK,74.02,Inactive,0,LEO,Russia,Russia/USSR,Unknown,Unknown,Unknown,1 04254U 69103A   24171.60983547 -.00000034  00000+0 -32888-4 0  9992,2 04254  74.0210 108.0557 0022430 132.4687  40.4029 13.27173171643116,13.27173171,0.002243,LEO
4256,OPS 7613 (P/L 1),1969,102.95,-1.0,UNK,70.01,Inactive,0,LEO,USA,USA,Unknown,Unknown,Unknown,1 04256U 69082B   24171.47342737  .00000142  00000+0  13564-3 0  9992,2 04256  70.0103  87.8998 0021544 294.6743  65.2121 13.98789342788688,13.98789342,0.0021544,LEO
4257,TIMATION 2,1969,103.14,-1.0,UNK,70.01,Inactive,0,LEO,USA,USA,Unknown,Unknown,Unknown,1 04257U 69082C   24171.52367043  .00000058  00000+0  80864-4 0  9990,2 04257  70.0135 206.7679 0021091 344.5520 167.2057 13.96136994785075,13.96136994,0.0021091,LEO
20641,USA 59,1990,238.97,-1.0,UNK,63.39,Inactive,0,MEO,USA,USA,Unknown,Unknown,Unknown,1 20641U 90050A   24171.31038356  .00000025  00000+0  00000+0 0  9996,2 20641  63.3874 134.6965 4052177 265.6449  48.3648  6.02579037  2477,6.02579037,0.4052177,MEO
4259,OPS 7613 (P/L 3),1969,103.23,-1.0,UNK,70.01,Inactive,0,LEO,USA,USA,Unknown,Unknown,Unknown,1 04259U 69082D   24171.59445579  .00000033  00000+0  63860-4 0  9990,2 04259  70.0148 247.4627 0020149   9.0458  97.8076 13.94944372880207,13.94944372,0.0020149,LEO
20643,INSAT-1D,1990,1436.16,-1.0,-,14.69,Inactive,0,GSO,USA,India,Unknown,Unknown,Delta,1 20643U 90051A   24171.53291068 -.00000157  00000+0  00000+0 0  9991,2 20643  14.6909 359.5107 0018671 163.7075  18.0112  1.00267409111452,1.00267409,0.0018671,GSO
12456,METEOR 2-7,1981,102.08,-1.0,UNK,81.27,Inactive,0,LEO,Russia,Russia/USSR,Unknown,Unknown,Unknown,1 12456U 81043A   24171.46407843  .00000078  00000+0  36092-4 0  9993,2 12456  81.2658  86.7312 0048040  35.2833 325.1501 14.10708748216430,14.10708748,0.004804,LEO
12458,NOVA 1,1981,108.83,-1.0,UNK,89.87,Inactive,0,LEO,USA,USA,Unknown,Unknown,Unknown,1 12458U 81044A   24171.56925538  .00000083  00000+0  17540-3 0  9995,2 12458  89.8671  98.8885 0014994 147.8792  25.5104 13.23173651 80290,13.23173651,0.0014994,LEO
20659,GORIZONT 20,1990,1435.49,-1.0,-,13.39,Inactive,0,GSO,Kazakhstan,Russia/USSR,Unknown,Unknown,Unknown,1 20659U 90054A   24171.63440308 -.00000216  00000+0  00000+0 0  9991,2 20659  13.3957 341.2788 0007192 195.5193  46.9572  1.00314215124396,1.00314215,0.0007192,GSO
25273,IRIDIUM 57,1998,100.33,-1.0,-,86.4,Inactive,0,LEO,USA,USA,Unknown,Unknown,Unknown,1 25273U 98019B   24171.58648305  .00000445  00000+0  14884-3 0  9990,2 25273  86.3952 297.1158 0002129  93.9358 266.2082 14.35252263372762,14.35252263,0.0002129,LEO
20663,COSMOS 2084,1990,96.08,-1.0,UNK,62.79,Inactive,0,LEO,Russia,Russia/USSR,Unknown,Unknown,Molniya,1 20663U 90055A   24171.63512470  .00004581  00000+0  34779-3 0  9999,2 20663  62.7919 308.3028 0111695 120.4168 240.8024 14.98803890841937,14.9880389,0.0111695,LEO
12472,GOES 5,1981,1435.72,-1.0,-,10.66,Inactive,0,GSO,USA,USA,Unknown,Unknown,Unknown,1 12472U 81049A   24171.61020806  .00000107  00000+0  00000+0 0  9992,2 12472  10.6651 320.6888 0001303 210.6098 177.6623  1.00298053115552,1.00298053,0.0001303,GSO
12474,INTELSAT 501,1981,1456.69,-1.0,-,12.06,Inactive,0,GSO,USA,INTELSAT,Unknown,Unknown,Unknown,1 12474U 81050A   24171.57350240 -.00000157  00000+0  00000+0 0  9995,2 12474  12.0599 329.4436 0004046 193.6837 134.6198  0.98854017130477,0.98854017,0.0004046,GSO
20667,INTELSAT 604 (IS-604),1990,1462.93,-1.0,-,14.12,Inactive,0,GSO,USA,INTELSAT,Unknown,Unknown,Unknown,1 20667U 90056A   24171.06858330  .00000015  00000+0  00000+0 0  9993,2 20667  14.1226  15.1754 0002314 320.9436  23.1909  0.98432236 39305,0.98432236,0.0002314,GSO
20670,METEOR 2-19,1990,103.99,-1.0,UNK,82.55,Inactive,0,LEO,Russia,Russia/USSR,Unknown,Unknown,Unknown,1 20670U 90057A   24171.40327625  .00000068  00000+0  47232-4 0  9995,2 20670  82.5453 137.6703 0015379 331.8953  28.1375 13.84796515716906,13.84796515,0.0015379,LEO
4295,OPS 7613 (P/L 6),1969,103.2,-1.0,UNK,70.01,Inactive,0,LEO,USA,USA,Unknown,Unknown,Unknown,1 04295U 69082G   24171.55834675  .00000053  00000+0  77785-4 0  9998,2 04295  70.0115 222.7953 0020017   7.6557 352.4850 13.95395674783979,13.95395674,0.0020017,LEO
4297,INTELSAT 3-F6,1970,1452.26,-1.0,-,0.84,Inactive,0,GSO,USA,INTELSAT,Unknown,Unknown,Unknown,1 04297U 70003A   24171.61971295  .00000108  00000+0  00000+0 0  9994,2 04297   0.8385 266.4102 0009654  87.9046   7.4874  0.99155791169649,0.99155791,0.0009654,GEO
20682,USA 60,1990,106.47,-1.0,UNK,63.3,Inactive,0,LEO,USA,USA,Unknown,Unknown,Unknown,1 20682U 90050B   24171.60277021  .00007989  00000+0  64499-3 0  9999,2 20682  63.3003   1.4582 0913819  68.9166 300.7047 13.52460447  4913,13.52460447,0.0913819,LEO
23649,JCSAT-3,1995,1452.42,-1.0,-,12.2,Inactive,0,GSO,USA,Japan,Unknown,Unknown,Unknown,1 23649U 95043A   24171.10315507  .00000027  00000+0  00000+0 0  9999,2 23649  12.1975  22.2396 0018339  64.4647 298.0546  0.99145029 62449,0.99145029,0.0018339,GSO
20691,USA 61,1990,106.52,-1.0,UNK,63.3,Inactive,0,LEO,USA,USA,Unknown,Unknown,Unknown,1 20691U 90050C   24171.27809771  .00007436  00000+0  62644-3 0  9992,2 20691  63.3012   1.6604 0911729  71.3378 298.4345 13.51837941  7420,13.51837941,0.0911729,LEO
20692,USA 62,1990,106.5,-1.0,UNK,63.3,Inactive,0,LEO,USA,USA,Unknown,Unknown,Unknown,1 20692U 90050D   24171.61931386  .00006972  00000+0  58636-3 0  9999,2 20692  63.3018   0.6193 0911038  70.9219 298.8148 13.52072503  5835,13.52072503,0.0911038,LEO
20693,COSMOS 2085,1990,1436.12,-1.0,UNK,13.37,Inactive,0,GSO,Kazakhstan,Russia/USSR,Military,Unknown,Proton,1 20693U 90061A   24171.53064810 -.00000050  00000+0  00000+0 0  9992,2 20693  13.3716 341.6701 0008830  47.4497 140.3304  1.00269808124207,1.00269808,0.000883,GSO
23651,N-STAR A,1995,1452.64,-1.0,-,12.34,Inactive,0,GSO,French Guiana,Japan,Unknown,Unknown,Unknown,1 23651U 95044A   24171.43716381 -.00000243  00000+0  00000+0 0  9995,2 23651  12.3375  26.4009 0018962   8.1059 350.8390  0.99129875104698,0.99129875,0.0018962,GSO
28884,GALAXY 15 (G-15),2005,1455.43,2033.0,-,1.64,Inactive,1,GSO,French Guiana,INTELSAT,Commercial,Communications,Ariane,1 28884U 05041A   24171.52516567  .00000060  00000+0  00000+0 0  9996,2 28884   1.6381  84.4993 0013498 111.0168 304.4202  0.98939574 68240,0.98939574,0.0013498,GSO
12504,COSMOS 1275,1981,104.77,-1.0,UNK,82.96,Inactive,0,LEO,Russia,Russia/USSR,Unknown,Unknown,Unknown,1 12504U 81053A   24171.51595319  .00000051  00000+0  36954-4 0  9998,2 12504  82.9609  82.7188 0040898  49.2682 311.2013 13.74436503159509,13.74436503,0.0040898,LEO
28891,TOPSAT,2005,98.43,-1.0,-,98.21,Inactive,0,LEO,Russia,UK,Unknown,Unknown,Unknown,1 28891U 05043B   24171.62880857  .00000617  00000+0  12989-3 0  9994,2 28891  98.2125 297.1654 0017074  46.5377 313.7241 14.62895562994148,14.62895562,0.0017074,LEO
28892,UWE-1,2005,98.13,-1.0,-,98.21,Inactive,0,LEO,Russia,Germany,Unknown,Unknown,Unknown,1 28892U 05043C   24171.62761697  .00001683  00000+0  30534-3 0  9995,2 28892  98.2097 307.7545 0014907 357.0799   3.0316 14.67493608994876,14.67493608,0.0014907,LEO
23653,COSMOS 2319,1995,1434.99,-1.0,-,14.48,Inactive,0,GSO,Kazakhstan,Russia/USSR,Military,Unknown,Proton,1 23653U 95045A   24171.16430510  .00000130  00000+0  00000+0 0  9999,2 23653  14.4820 358.2187 0005528 198.0657 157.8834  1.00348860105484,1.0034886,0.0005528,GSO
28894,SSETI EXPRESS (XO-53),2005,98.4,-1.0,-,98.21,Inactive,0,LEO,Russia,ESA,Unknown,Unknown,Unknown,1 28894U 05043E   24171.31724880  .00000758  00000+0  15572-3 0  9993,2 28894  98.2106 297.9815 0017249  45.2962 314.9641 14.63391536993753,14.63391536,0.0017249,LEO
4320,ITOS 1 (TIROS M),1970,115.01,-1.0,-,101.48,Inactive,0,LEO,USA,USA,Unknown,Unknown,Unknown,1 04320U 70008A   24171.60547859 -.00000022  00000+0  13635-3 0  9998,2 04320 101.4774 222.9540 0027647 292.5268 196.4743 12.52095797682792,12.52095797,0.0027647,LEO
4321,OSCAR 5 (AO-5),1970,115.0,-1.0,-,101.37,Inactive,0,LEO,USA,Australia,Unknown,Unknown,Unknown,1 04321U 70008B   24171.56565653 -.00000034  00000+0  52623-4 0  9990,2 04321 101.3719 202.8929 0027144 246.6193 242.0066 12.52170050486826,12.5217005,0.0027144,LEO
20705,TDF 2,1990,1460.32,-1.0,UNK,15.12,Inactive,0,GSO,French Guiana,France,Unknown,Unknown,Unknown,1 20705U 90063A   24171.36614329 -.00000206  00000+0  00000+0 0  9998,2 20705  15.1244   3.7934 0039973 311.8724  46.3057  0.98609227125383,0.98609227,0.0039973,GSO
20706,DFS 2,1990,1446.47,-1.0,UNK,14.31,Inactive,0,GSO,French Guiana,Germany,Unknown,Unknown,Unknown,1 20706U 90063B   24171.36945015 -.00000241  00000+0  00000+0 0  9997,2 20706  14.3061   9.0030 0003860 234.7690 136.9159  0.99552912115689,0.99552912,0.000386,GSO
20707,COSMOS 2087,1990,718.11,-1.0,UNK,67.71,Inactive,0,MEO,Russia,Russia/USSR,Unknown,Unknown,Molniya,1 20707U 90064A   24169.36821916  .00000526  00000+0  00000+0 0  9994,2 20707  67.7110 231.9861 5808803  43.4289 350.0020  2.00526888248184,2.00526888,0.5808803,MEO
